{
    "links": {
        "self": "http://www.neowsapp.com/rest/v1/neo/3664086?api_key=iIulBulltgU6a56xZRHN4H3l9WmuAYTsLGpBGhQ2"
    },
    "id": "3664086",
    "neo_reference_id": "3664086",
    "name": "(2014 EC49)",
    "designation": "2014 EC49",
    "nasa_jpl_url": "http://ssd.jpl.nasa.gov/sbdb.cgi?sstr=3664086",
    "absolute_magnitude_h": 23.5,
    "estimated_diameter": {
        "kilometers": {
            "estimated_diameter_min": 0.0530340723,
            "estimated_diameter_max": 0.1185877909
        },
        "meters": {
            "estimated_diameter_min": 53.0340723319,
            "estimated_diameter_max": 118.5877908577
        },
        "miles": {
            "estimated_diameter_min": 0.0329538346,
            "estimated_diameter_max": 0.0736870142
        },
        "feet": {
            "estimated_diameter_min": 173.9963058693,
            "estimated_diameter_max": 389.0675677576
        }
    },
    "is_potentially_hazardous_asteroid": false,
    "close_approach_data": [
        {
            "close_approach_date": "1922-03-31",
            "close_approach_date_full": "1922-Mar-31 14:22",
            "epoch_date_close_approach": -1507023480000,
            "relative_velocity": {
                "kilometers_per_second": "8.1599170322",
                "kilometers_per_hour": "29375.7013160294",
                "miles_per_hour": "18252.9184093962"
            },
            "miss_distance": {
                "astronomical": "0.1790896968",
                "lunar": "69.6658920552",
                "kilometers": "26791437.180225816",
                "miles": "16647427.1123396208"
            },
            "orbiting_body": "Earth"
        },
        {
            "close_approach_date": "1995-02-23",
            "close_approach_date_full": "1995-Feb-23 08:07",
            "epoch_date_close_approach": 793526820000,
            "relative_velocity": {
                "kilometers_per_second": "20.7028686255",
                "kilometers_per_hour": "74530.3270516308",
                "miles_per_hour": "46310.2468282758"
            },
            "miss_distance": {
                "astronomical": "0.4976704917",
                "lunar": "193.5938212713",
                "kilometers": "74450445.520172679",
                "miles": "46261361.6783898102"
            },
            "orbiting_body": "Earth"
        },
        {
            "close_approach_date": "2014-04-03",
            "close_approach_date_full": "2014-Apr-03 03:29",
            "epoch_date_close_approach": 1396495740000,
            "relative_velocity": {
                "kilometers_per_second": "8.1374937411",
                "kilometers_per_hour": "29294.9774680765",
                "miles_per_hour": "18202.759749539"
            },
            "miss_distance": {
                "astronomical": "0.0886167177",
                "lunar": "34.4719031853",
                "kilometers": "13256872.214311299",
                "miles": "8237438.4188779662"
            },
            "orbiting_body": "Earth"
        },
        {
            "close_approach_date": "2023-08-31",
            "close_approach_date_full": "2023-Aug-31 16:12",
            "epoch_date_close_approach": 1693498320000,
            "relative_velocity": {
                "kilometers_per_second": "6.5466308911",
                "kilometers_per_hour": "23567.8712079042",
                "miles_per_hour": "14644.1586402669"
            },
            "miss_distance": {
                "astronomical": "1.9186384205",
                "lunar": "746.3503455745",
                "kilometers": "287024221.006964335",
                "miles": "178348580.800144423"
            },
            "orbiting_body": "Juptr"
        },
        {
            "close_approach_date": "2165-11-17",
            "close_approach_date_full": "2165-Nov-17 14:25",
            "epoch_date_close_approach": 6181367100000,
            "relative_velocity": {
                "kilometers_per_second": "4.6704888184",
                "kilometers_per_hour": "16813.7597463735",
                "miles_per_hour": "10447.4164379619"
            },
            "miss_distance": {
                "astronomical": "1.377327012",
                "lunar": "535.780207668",
                "kilometers": "206045187.28866444",
                "miles": "128030542.526031672"
            },
            "orbiting_body": "Juptr"
        }
    ],
    "orbital_data": {
        "orbit_id": "14",
        "orbit_determination_date": "2017-04-06 08:42:02",
        "first_observation_date": "2014-03-13",
        "last_observation_date": "2014-04-19",
        "data_arc_in_days": 37,
        "observations_used": 68,
        "orbit_uncertainty": "7",
        "minimum_orbit_intersection": ".0805055",
        "jupiter_tisserand_invariant": "3.252",
        "epoch_osculation": "2459000.5",
        "eccentricity": ".5583506410755026",
        "semi_major_axis": "2.446416125995287",
        "inclination": "8.68457058896808",
        "ascending_node_longitude": "12.77680372819291",
        "orbital_period": "1397.6354995806",
        "perihelion_distance": "1.080458113708371",
        "perihelion_argument": "186.9600400104702",
        "aphelion_distance": "3.812374138282203",
        "perihelion_time": "2459550.546527537402",
        "mean_anomaly": "218.3201772043674",
        "mean_motion": ".2575778878742191",
        "equinox": "J2000",
        "orbit_class": {
            "orbit_class_type": "AMO",
            "orbit_class_description": "Near-Earth asteroid orbits similar to that of 1221 Amor",
            "orbit_class_range": "1.017 AU < q (perihelion) < 1.3 AU"
        }
    },
    "is_sentry_object": false
}